FTXX60 KWBC 190000
TAF
TAF KDOV 190000Z 1900/2006 27012KT 9999 SCT100 510023 QNH2986INS
      BECMG 1915/1916 28012G20KT 9999 BKN040 510053 QNH3017INS
      BECMG 1920/1921 27012KT 9999 SCT050 510053 QNH3017INS
      TX05/1919Z TNM02/1911Z=

