FTXX70 KAWN 151000
TAF AMD KQN3 151046Z 1510/1615 10010G15KT 3200 DU FEW200 QNH2981INS
     TEMPO 1514/1517 09012G20KT 4000 BLDU
     BECMG 1519/1520 VRB06KT 5000 HZ SKC QNH2987INS
     BECMG 1603/1604 VRB06KT 6000 HZ SKC QNH2990INS TX37/1514Z
     TN24/1605Z=

