FTCN33 CWAO 011500 AAA
TAF AMD CYBB 011507Z 0115/0124 22020KT 3SM BLSN BKN025 TEMPO
     0115/0120 3/4SM -SN BLSN VV008
    FM012000 24015KT P6SM SCT020 SCT150 TEMPO 0120/0124 3SM -SN IC
     BLSN BKN020
    RMK NXT FCST BY 011900Z=
